ONEWEB-0551             
1 56053U 23043H   23219.15691455 -.00074587  00000+0 -16544+0 0  9995
2 56053  87.9488 107.3238 0003786  96.0877 264.0692 13.28259059 19902
ONEWEB-0552             
1 56054U 23043J   23219.25001157 -.01220736  00000+0 -57655+0 0  9999
2 56054  87.3683  93.6123 0004950  58.7546  80.4986 14.23248615 20906
ONEWEB-0553             
1 56055U 23043K   23218.41460631  .00004371  00000+0  46339-3 0  9996
2 56055  86.8999  91.5355 0001121 117.2171 242.9170 14.88890243 20885
ONEWEB-0554             
1 56056U 23043L   23219.36451507  .00002973  00000+0  31418-3 0  9992
2 56056  86.8918  91.0707 0004411  75.9201 284.2516 14.88890764 21020
ONEWEB-0555             
1 56057U 23043M   23219.39280685  .00003275  00000+0  34663-3 0  9994
2 56057  86.8952  91.1004 0003071  56.3654 303.7866 14.88877463 21022
ONEWEB-0557             
1 56058U 23043N   23218.74488302  .00003719  00000+0  39379-3 0  9991
2 56058  86.8915  91.3038 0003242  75.9619 284.1968 14.88899108 20933
ONEWEB-0558             
1 56059U 23043P   23218.91667824 -.01214518  00000+0 -58193+0 0  9994
2 56059  87.3854  93.7478 0004288 117.0882 345.3440 14.22473544 20864
ONEWEB-0559             
1 56060U 23043Q   23219.58334491 -.01120082  00000+0 -49004+0 0  9994
2 56060  87.3981  93.4791 0001438 156.2499 288.7369 14.26977027 20965
ONEWEB-0566             
1 56061U 23043R   23219.58334491 -.01138314  00000+0 -56464+0 0  9990
2 56061  87.3785  93.5768 0002602 143.5717 232.0947 14.20428069 20953
ONEWEB-0568             
1 56062U 23043S   23218.73971061  .00003279  00000+0  34663-3 0  9996
2 56062  86.9033  91.4479 0003143  66.7479 293.4079 14.88920585 20921
ONEWEB-0574             
1 56063U 23043T   23219.25001157 -.01127478  00000+0 -47193+0 0  9994
2 56063  87.4311  93.5897 0002494 133.0090 100.1729 14.29289146 20910
ONEWEB-0575             
1 56064U 23043U   23218.74655958  .00001837  00000+0  19311-3 0  9994
2 56064  86.9032  91.4538 0003489 100.1064 260.0557 14.88879383 20924
ONEWEB-0576             
1 56065U 23043V   23219.12763541 -.00005908  00000+0 -63501-3 0  9991
2 56065  86.8975  91.2467 0002943  50.3568 309.7918 14.88849004 20983
ONEWEB-0577             
1 56066U 23043W   23219.12977764  .00003186  00000+0  33714-3 0  9993
2 56066  86.9033  91.3831 0003801  65.2841 294.8780 14.88874153 20994
ONEWEB-0578             
1 56067U 23043X   23218.91667824 -.01221619  00000+0 -58704+0 0  9991
2 56067  87.3812  93.7504 0003337 132.3830  94.0895 14.22341681 20851
ONEWEB-0579             
1 56068U 23043Y   23218.91667824 -.01210544  00000+0 -57050+0 0  9990
2 56068  87.3920  93.7269 0002000 129.8825  25.7120 14.23339448 20863
ONEWEB-0581             
1 56069U 23043Z   23218.19461322  .00003322  00000+0  35158-3 0  9996
2 56069  86.8998  91.6277 0000905  54.6499 305.4812 14.88889370 20842
ONEWEB-0609             
1 56070U 23043AA  23219.58334491  .00051728  00000+0  12408+0 0  9990
2 56070  87.9266 107.2579 0003258 113.1361  61.1405 13.22053789 20002
ONEWEB-0613             
1 56071U 23043AB  23219.58334491  .00050347  00000+0  11969+0 0  9998
2 56071  87.9193 107.2198 0001866 123.5154 106.2632 13.22668204 19990
ONEWEB-0630             
1 56072U 23043AC  23219.58334491  .00049219  00000+0  13074+0 0  9994
2 56072  87.8984 107.1881 0004006  59.0617 208.0794 13.15163154 19998
ONEWEB-0632             
1 56073U 23043AD  23219.58334491  .00000013  00000+0  00000+0 0  9999
2 56073  87.9209 107.2333 0001869 120.6648  70.0611 13.23001389 19991
ONEWEB-0633             
1 56074U 23043AE  23219.58334491  .00000013  00000+0  00000+0 0  9990
2 56074  87.9035 107.2308 0001968  99.8123 205.8900 13.15978920 19978
ONEWEB-0634             
1 56075U 23043AF  23219.58334491 -.00104747  00000+0 -25537+0 0  9994
2 56075  87.9249 107.2250 0001377 102.8552 233.6283 13.22150245 19969
ONEWEB-0635             
1 56076U 23043AG  23219.58334491  .00000013  00000+0  00000+0 0  9992
2 56076  87.9427 107.3066 0002292 115.7712 177.6993 13.26236000 19998
ONEWEB-0636             
1 56077U 23043AH  23219.58334491  .00000013  00000+0  00000+0 0  9993
2 56077  87.9304 107.2687 0001770  96.7691 265.8162 13.24266751 19975
ONEWEB-0637             
1 56078U 23043AJ  23218.91667824 -.00021743  00000+0 -52235-1 0  9993
2 56078  87.9202 107.3700 0002176  69.3959  73.9555 13.22557035 19907
ONEWEB-0647             
1 56079U 23043AK  23219.25001157 -.00026317  00000+0 -63436-1 0  9990
2 56079  87.9155 107.3078 0002989 118.9073 193.5805 13.22357190 19023
ONEWEB-0651             
1 56080U 23043AL  23219.58334491  .00000013  00000+0  00000+0 0  9997
2 56080  87.9245 107.2049 0001133  71.9352 345.0388 13.24452952 19079
ONEWEB-0718             
1 56081U 23043AM  23219.58334491  .00050482  00000+0  12022+0 0  9990
2 56081  87.9269 107.2630 0001985  59.4358 137.6818 13.22549575 19994
GSLV R/B                
1 56082U 23043AN  23219.40873117  .00021263  00000+0  47112-3 0  9992
2 56082  87.4116  95.0600 0020315 217.2930 142.6918 15.43419194 20672
ONEWEB-0561             
1 56710U 23068A   23219.50001157  .00000014  00000+0  00000+0 0  9997
2 56710  87.8606 115.8152 0012334 343.4109 194.2797 13.44651941 11982
ONEWEB-0668             
1 56711U 23068B   23219.10498488  .00001776  00000+0  24076-3 0  9990
2 56711  86.7241 108.1146 0012694 316.1391  43.8821 14.78320311 12455
ONEWEB-0676             
1 56712U 23068C   23219.45153850  .00002273  00000+0  30980-3 0  9994
2 56712  86.7179 107.9363 0013431 316.9875  43.0294 14.78212168 12501
ONEWEB-0677             
1 56713U 23068D   23219.50001157  .00000015  00000+0  00000+0 0  9991
2 56713  87.6399 114.0112 0010097 341.6903 339.5832 13.68613757 12136
ONEWEB-0678             
1 56714U 23068E   23219.16668981 -.00563111  00000+0 -32038+0 0  9997
2 56714  87.1228 109.8963 0009579 331.8068 128.5733 14.12420495 12327
ONEWEB-0679             
1 56715U 23068F   23219.44117706  .00001662  00000+0  22469-3 0  9990
2 56715  86.7219 107.9685 0013564 314.9335  45.0784 14.78369136 12506
ONEWEB-0680             
1 56716U 23068G   23218.98728189  .00002343  00000+0  32124-3 0  9998
2 56716  86.7203 108.1511 0012807 320.4509  39.5776 14.77975609 12433
ONEWEB-0681             
1 56717U 23068H   23219.41409994  .00002322  00000+0  32107-3 0  9996
2 56717  86.7208 108.0074 0010885 322.8589  37.1877 14.77630600 12491
ONEWEB-0682             
1 56718U 23068J   23219.50001157 -.00641439  00000+0 -25867+0 0  9997
2 56718  87.1512 109.6385 0010461 326.4699  71.7615 14.30944517 12396
ONEWEB-0683             
1 56719U 23068K   23219.50001157 -.00591567  00000+0 -28078+0 0  9991
2 56719  87.1112 109.6264 0010547 327.9194 125.6468 14.22241747 12391
ONEWEB-0684             
1 56720U 23068L   23219.16668981 -.00819460  00000+0 -51782+0 0  9992
2 56720  87.1442 109.9360 0012258 331.7189  49.4688 14.07267368 12316
ONEWEB-0686             
1 56721U 23068M   23218.98043738  .00001636  00000+0  22266-3 0  9994
2 56721  86.7201 108.1410 0013383 318.4105  41.6097 14.78073288 12437
ONEWEB-0694             
1 56722U 23068N   23218.98272357  .00002228  00000+0  30485-3 0  9996
2 56722  86.7236 108.1836 0013110 318.4951  41.5272 14.78039265 12436
ONEWEB-0696             
1 56723U 23068P   23219.50001157 -.00526367  00000+0 -27672+0 0  9991
2 56723  87.0874 109.7566 0011903 335.9350 170.9429 14.16926819 12377
ONEWEB-0703             
1 56724U 23068Q   23219.16668981 -.00840128  00000+0 -52838+0 0  9994
2 56724  87.1413 109.9197 0010717 329.8397  91.0662 14.07617142 12328
ONEWEB-0721             
1 56725U 23068R   23218.94612134  .00002684  00000+0  32712-3 0  9997
2 56725  86.6761 107.6951 0009262 321.2628  38.7930 14.82993765 12459
